QIANFAN-49              
1 62250U 24232P   26024.27910923  .00000041  00000+0  45316-4 0  9992
2 62250  89.0002  36.9385 0016080  74.5421 285.7505 13.50984064 73583
QIANFAN-50              
1 62251U 24232Q   26024.22980118  .00000036  00000+0  37311-4 0  9991
2 62251  89.0007  36.9540 0017755  75.6704 284.6417 13.50980931 73600
QIANFAN-51              
1 62252U 24232R   26024.21329626  .00000049  00000+0  57778-4 0  9995
2 62252  89.0001  36.9469 0015273  79.2464 281.0406 13.50983537 73593
QIANFAN-52              
1 62253U 24232S   26024.09403406  .00000053  00000+0  63560-4 0  9992
2 62253  88.9997  36.8309 0017212  72.4592 287.8439 13.50981509 73665
QIANFAN-53              
1 62254U 24232T   26024.22149508  .00000036  00000+0  36523-4 0  9998
2 62254  89.0005  36.9257 0016099  73.2888 287.0029 13.50984240 73640
QIANFAN-54              
1 62255U 24232U   26024.26262051  .00000043  00000+0  47330-4 0  9998
2 62255  88.9996  36.5962 0004010 101.9788 258.1812 13.50984712105150
QIANFAN-55              
1 62785U 25016A   26024.28856031  .00000166  00000+0  23812-3 0  9990
2 62785  88.9758  98.8196 0016509 219.4002 140.5949 13.50990305 52931
QIANFAN-56              
1 62786U 25016B   26024.23093668  .00000173  00000+0  24917-3 0  9990
2 62786  88.9731  98.6505 0015083 221.5276 138.4730 13.50992543 52972
